start=new Date('2023-06-24T00:00:00.000Z').valueOf();
sats=[{"REF_FRAME":"TEME","GP_ID":"234461630","LAUNCH_DATE":"2019-11-11","PERIAPSIS":"546.634","FILE":"3940078","APOAPSIS":"547.929","TLE_LINE2":"2 44736  53.0555 335.1698 0000935  63.8644 296.2442 15.06377819199287","MEAN_MOTION_DDOT":"0.0000000000000","OBJECT_ID":"2019-074Z","ARG_OF_PERICENTER":"63.8644","RA_OF_ASC_NODE":"335.1698","NORAD_CAT_ID":"44736","MEAN_MOTION_DOT":"0.00021892","CLASSIFICATION_TYPE":"U","TLE_LINE1":"1 44736U 19074Z   23173.73834083  .00021892  00000-0  14849-2 0  9997","EPHEMERIS_TYPE":"0","MEAN_ELEMENT_THEORY":"SGP4","RCS_SIZE":"LARGE","EPOCH":"2023-06-22T17:43:12.647712","ELEMENT_SET_NO":"999","SEMIMAJOR_AXIS":"6925.417","MEAN_MOTION":"15.06377819","INCLINATION":"53.0555","REV_AT_EPOCH":"19928","PERIOD":"95.594","MEAN_ANOMALY":"296.2442","BSTAR":"0.00148490000000","OBJECT_TYPE":"PAYLOAD","CENTER_NAME":"EARTH","DECAY_DATE":null,"COUNTRY_CODE":"US","SITE":"AFETR","TIME_SYSTEM":"UTC","ECCENTRICITY":"0.00009350","OBJECT_NAME":"STARLINK-1031"},{"EPOCH":"2023-06-23T17:52:13.395072","EPHEMERIS_TYPE":"0","TLE_LINE1":"1 44737U 19074AA  23174.74459948  .00025517  00000-0  17246-2 0  9995","MEAN_ELEMENT_THEORY":"SGP4","CLASSIFICATION_TYPE":"U","RCS_SIZE":"LARGE","MEAN_MOTION_DOT":"0.00025517","NORAD_CAT_ID":"44737","ARG_OF_PERICENTER":"72.7026","RA_OF_ASC_NODE":"330.6538","TLE_LINE2":"2 44737  53.0551 330.6538 0001230  72.7026 287.4097 15.06425404199438","APOAPSIS":"547.988","FILE":"3940931","OBJECT_ID":"2019-074AA","MEAN_MOTION_DDOT":"0.0000000000000","GP_ID":"234508604","PERIAPSIS":"546.284","LAUNCH_DATE":"2019-11-11","REF_FRAME":"TEME","TIME_SYSTEM":"UTC","OBJECT_NAME":"STARLINK-1032","ECCENTRICITY":"0.00012300","SITE":"AFETR","DECAY_DATE":null,"CENTER_NAME":"EARTH","COUNTRY_CODE":"US","BSTAR":"0.00172460000000","OBJECT_TYPE":"PAYLOAD","REV_AT_EPOCH":"19943","MEAN_ANOMALY":"287.4097","PERIOD":"95.591","ELEMENT_SET_NO":"999","SEMIMAJOR_AXIS":"6925.271","INCLINATION":"53.0551","MEAN_MOTION":"15.06425404"},{"TIME_SYSTEM":"UTC","OBJECT_NAME":"STARLINK-1033","ECCENTRICITY":"0.00008590","SITE":"AFETR","DECAY_DATE":null,"CENTER_NAME":"EARTH","COUNTRY_CODE":"US","BSTAR":"0.00001256300000","OBJECT_TYPE":"PAYLOAD","REV_AT_EPOCH":"19966","MEAN_ANOMALY":"279.7181","PERIOD":"91.328","INCLINATION":"53.0533","SEMIMAJOR_AXIS":"6717.834","ELEMENT_SET_NO":"999","MEAN_MOTION":"15.76735426","EPOCH":"2023-06-23T09:35:05.152416","TLE_LINE1":"1 44738U 19074AB  23174.39936519  .00001403  00000-0  12563-4 0  9998","MEAN_ELEMENT_THEORY":"SGP4","EPHEMERIS_TYPE":"0","CLASSIFICATION_TYPE":"U","RCS_SIZE":"LARGE","NORAD_CAT_ID":"44738","MEAN_MOTION_DOT":"0.00001403","ARG_OF_PERICENTER":"80.3936","RA_OF_ASC_NODE":"311.6115","TLE_LINE2":"2 44738  53.0533 311.6115 0000859  80.3936 279.7181 15.76735426199668","APOAPSIS":"340.276","FILE":"3940635","OBJECT_ID":"2019-074AB","MEAN_MOTION_DDOT":"0.0000000000000","GP_ID":"234501317","PERIAPSIS":"339.122","LAUNCH_DATE":"2019-11-11","REF_FRAME":"TEME"},{"APOAPSIS":"389.058","FILE":"3940932","TLE_LINE2":"2 44739  52.9518 259.4503 0004626 313.0902  46.9721 15.60598686200334","MEAN_MOTION_DDOT":"0.0000000000000","OBJECT_ID":"2019-074AC","GP_ID":"234508106","PERIAPSIS":"382.800","LAUNCH_DATE":"2019-11-11","REF_FRAME":"TEME","EPOCH":"2023-06-23T15:50:41.395776","CLASSIFICATION_TYPE":"U","EPHEMERIS_TYPE":"0","TLE_LINE1":"1 44739U 19074AC  23174.66020134  .00126019  00000-0  14784-2 0  9992","MEAN_ELEMENT_THEORY":"SGP4","RCS_SIZE":"LARGE","MEAN_MOTION_DOT":"0.00126019","NORAD_CAT_ID":"44739","RA_OF_ASC_NODE":"259.4503","ARG_OF_PERICENTER":"313.0902","BSTAR":"0.00147840000000","OBJECT_TYPE":"PAYLOAD","REV_AT_EPOCH":"20033","PERIOD":"92.272","MEAN_ANOMALY":"46.9721","SEMIMAJOR_AXIS":"6764.064","INCLINATION":"52.9518","ELEMENT_SET_NO":"999","MEAN_MOTION":"15.60598686","TIME_SYSTEM":"UTC","ECCENTRICITY":"0.00046260","OBJECT_NAME":"STARLINK-1034","SITE":"AFETR","CENTER_NAME":"EARTH","DECAY_DATE":null,"COUNTRY_CODE":"US"},{"OBJECT_NAME":"STARLINK-1035","ECCENTRICITY":"0.00010730","TIME_SYSTEM":"UTC","SITE":"AFETR","COUNTRY_CODE":"US","DECAY_DATE":null,"CENTER_NAME":"EARTH","OBJECT_TYPE":"PAYLOAD","BSTAR":"0.00155650000000","PERIOD":"95.594","MEAN_ANOMALY":"287.2020","REV_AT_EPOCH":"19928","SEMIMAJOR_AXIS":"6925.425","INCLINATION":"53.0554","ELEMENT_SET_NO":"999","MEAN_MOTION":"15.06375160","EPOCH":"2023-06-22T17:53:49.400160","RCS_SIZE":"LARGE","EPHEMERIS_TYPE":"0","TLE_LINE1":"1 44740U 19074AD  23173.74571065  .00022963  00000-0  15565-2 0  9997","MEAN_ELEMENT_THEORY":"SGP4","CLASSIFICATION_TYPE":"U","MEAN_MOTION_DOT":"0.00022963","NORAD_CAT_ID":"44740","RA_OF_ASC_NODE":"335.1376","ARG_OF_PERICENTER":"72.9087","OBJECT_ID":"2019-074AD","MEAN_MOTION_DDOT":"0.0000000000000","TLE_LINE2":"2 44740  53.0554 335.1376 0001073  72.9087 287.2020 15.06375160199289","FILE":"3940078","APOAPSIS":"548.033","PERIAPSIS":"546.547","LAUNCH_DATE":"2019-11-11","GP_ID":"234461626","REF_FRAME":"TEME"},{"GP_ID":"234508620","PERIAPSIS":"546.365","LAUNCH_DATE":"2019-11-11","REF_FRAME":"TEME","TLE_LINE2":"2 44741  53.0550 330.6205 0001104  71.4670 288.6439 15.06427455199435","FILE":"3940933","APOAPSIS":"547.894","OBJECT_ID":"2019-074AE","MEAN_MOTION_DDOT":"0.0000000000000","MEAN_MOTION_DOT":"0.00026513","NORAD_CAT_ID":"44741","RA_OF_ASC_NODE":"330.6205","ARG_OF_PERICENTER":"71.4670","EPOCH":"2023-06-23T18:02:50.258976","EPHEMERIS_TYPE":"0","TLE_LINE1":"1 44741U 19074AE  23174.75197059  .00026513  00000-0  17908-2 0  9995","MEAN_ELEMENT_THEORY":"SGP4","CLASSIFICATION_TYPE":"U","RCS_SIZE":"LARGE","REV_AT_EPOCH":"19943","MEAN_ANOMALY":"288.6439","PERIOD":"95.590","ELEMENT_SET_NO":"999","SEMIMAJOR_AXIS":"6925.264","MEAN_MOTION":"15.06427455","INCLINATION":"53.0550","BSTAR":"0.00179080000000","OBJECT_TYPE":"PAYLOAD","DECAY_DATE":null,"CENTER_NAME":"EARTH","COUNTRY_CODE":"US","TIME_SYSTEM":"UTC","OBJECT_NAME":"STARLINK-1036","ECCENTRICITY":"0.00011040","SITE":"AFETR"},{"GP_ID":"234461336","PERIAPSIS":"546.666","LAUNCH_DATE":"2019-11-11","REF_FRAME":"TEME","FILE":"3940080","APOAPSIS":"547.916","TLE_LINE2":"2 44743  53.0553 354.8629 0000903  75.5144 284.5945 15.06374708199018","MEAN_MOTION_DDOT":"0.0000000000000","OBJECT_ID":"2019-074AG","NORAD_CAT_ID":"44743","MEAN_MOTION_DOT":"0.00022987","RA_OF_ASC_NODE":"354.8629","ARG_OF_PERICENTER":"75.5144","EPOCH":"2023-06-22T19:21:24.074496","CLASSIFICATION_TYPE":"U","MEAN_ELEMENT_THEORY":"SGP4","TLE_LINE1":"1 44743U 19074AG  23173.80652864  .00022987  00000-0  15581-2 0  9998","EPHEMERIS_TYPE":"0","RCS_SIZE":"LARGE","REV_AT_EPOCH":"19901","MEAN_ANOMALY":"284.5945","PERIOD":"95.594","SEMIMAJOR_AXIS":"6925.426","ELEMENT_SET_NO":"999","MEAN_MOTION":"15.06374708","INCLINATION":"53.0553","BSTAR":"0.00155810000000","OBJECT_TYPE":"PAYLOAD","CENTER_NAME":"EARTH","DECAY_DATE":null,"COUNTRY_CODE":"US","TIME_SYSTEM":"UTC","ECCENTRICITY":"0.00009030","OBJECT_NAME":"STARLINK-1038","SITE":"AFETR"},{"NORAD_CAT_ID":"44744","MEAN_MOTION_DOT":"0.00024931","ARG_OF_PERICENTER":"75.1660","RA_OF_ASC_NODE":"350.6447","EPOCH":"2023-06-23T17:54:52.298496","RCS_SIZE":"LARGE","CLASSIFICATION_TYPE":"U","MEAN_ELEMENT_THEORY":"SGP4","TLE_LINE1":"1 44744U 19074AH  23174.74643864  .00024931  00000-0  16856-2 0  9990","EPHEMERIS_TYPE":"0","PERIAPSIS":"546.543","LAUNCH_DATE":"2019-11-11","GP_ID":"234510027","REF_FRAME":"TEME","MEAN_MOTION_DDOT":"0.0000000000000","OBJECT_ID":"2019-074AH","APOAPSIS":"547.739","FILE":"3940985","TLE_LINE2":"2 44744  53.0551 350.6447 0000863  75.1660 284.9425 15.06423688199157","COUNTRY_CODE":"US","CENTER_NAME":"EARTH","DECAY_DATE":null,"ECCENTRICITY":"0.00008630","OBJECT_NAME":"STARLINK-1039","TIME_SYSTEM":"UTC","SITE":"AFETR","MEAN_ANOMALY":"284.9425","PERIOD":"95.591","REV_AT_EPOCH":"19915","MEAN_MOTION":"15.06423688","SEMIMAJOR_AXIS":"6925.276","ELEMENT_SET_NO":"999","INCLINATION":"53.0551","OBJECT_TYPE":"PAYLOAD","BSTAR":"0.00168560000000"},{"GP_ID":"234461649","LAUNCH_DATE":"2019-11-11","PERIAPSIS":"546.400","REF_FRAME":"TEME","TLE_LINE2":"2 44746  53.0554 354.8793 0001274  80.7502 279.3631 15.06377489199015","APOAPSIS":"548.165","FILE":"3940080","OBJECT_ID":"2019-074AK","MEAN_MOTION_DDOT":"0.0000000000000","NORAD_CAT_ID":"44746","MEAN_MOTION_DOT":"0.00022749","RA_OF_ASC_NODE":"354.8793","ARG_OF_PERICENTER":"80.7502","EPOCH":"2023-06-22T19:16:05.593728","MEAN_ELEMENT_THEORY":"SGP4","TLE_LINE1":"1 44746U 19074AK  23173.80284252  .00022749  00000-0  15421-2 0  9992","EPHEMERIS_TYPE":"0","CLASSIFICATION_TYPE":"U","RCS_SIZE":"LARGE","REV_AT_EPOCH":"19901","MEAN_ANOMALY":"279.3631","PERIOD":"95.594","SEMIMAJOR_AXIS":"6925.418","ELEMENT_SET_NO":"999","INCLINATION":"53.0554","MEAN_MOTION":"15.06377489","BSTAR":"0.00154210000000","OBJECT_TYPE":"PAYLOAD","DECAY_DATE":null,"CENTER_NAME":"EARTH","COUNTRY_CODE":"US","TIME_SYSTEM":"UTC","OBJECT_NAME":"STARLINK-1041","ECCENTRICITY":"0.00012740","SITE":"AFETR"},{"OBJECT_TYPE":"PAYLOAD","BSTAR":"0.00173310000000","ELEMENT_SET_NO":"999","SEMIMAJOR_AXIS":"6925.260","INCLINATION":"53.0553","MEAN_MOTION":"15.06428732","MEAN_ANOMALY":"295.4591","PERIOD":"95.590","REV_AT_EPOCH":"19916","SITE":"AFETR","OBJECT_NAME":"STARLINK-1042","ECCENTRICITY":"0.00014070","TIME_SYSTEM":"UTC","COUNTRY_CODE":"US","DECAY_DATE":null,"CENTER_NAME":"EARTH","OBJECT_ID":"2019-074AL","MEAN_MOTION_DDOT":"0.0000000000000","TLE_LINE2":"2 44747  53.0553 350.5796 0001407  64.6544 295.4591 15.06428732199164","FILE":"3940962","APOAPSIS":"548.100","REF_FRAME":"TEME","LAUNCH_DATE":"2019-11-11","PERIAPSIS":"546.151","GP_ID":"234508634","RCS_SIZE":"LARGE","MEAN_ELEMENT_THEORY":"SGP4","TLE_LINE1":"1 44747U 19074AL  23174.76118676  .00025647  00000-0  17331-2 0  9997","EPHEMERIS_TYPE":"0","CLASSIFICATION_TYPE":"U","EPOCH":"2023-06-23T18:16:06.536064","RA_OF_ASC_NODE":"350.5796","ARG_OF_PERICENTER":"64.6544","NORAD_CAT_ID":"44747","MEAN_MOTION_DOT":"0.00025647"}];
